     2.100          NAVIGATION                              RINEX VERSION / TYPE
fic2rin                                 01/09/2011 00:16:20 PGM / RUN BY / DATE
                                                            END OF HEADER
 1 11  1  8 18  0  0.0 -.198388937861D-03 -.329691829393D-11  .000000000000D+00
     .540000000000D+02 -.636875000000D+02  .453054585828D-08  .681913407036D+00
    -.327080488205D-05  .440286647063D-02  .406242907047D-05  .515355007362D+04
     .583200000000D+06 -.111758708954D-07 -.458946201934D+00  .204890966415D-07
     .967563317844D+00  .304687500000D+03  .909036414227D+00 -.831820362943D-08
    -.147863301957D-09  .100000000000D+01  .161700000000D+04  .000000000000D+00
     .240000000000D+01  .630000000000D+02 -.190921127796D-07  .540000000000D+02
     .576006000000D+06  .400000000000D+01
 2 11  1  8 18  0  0.0  .313533004373D-03  .216004991671D-11  .000000000000D+00
     .113000000000D+03  .418437500000D+02  .525129016589D-08 -.928845170587D+00
     .218488276005D-05  .990851782262D-02  .770017504692D-05  .515368914413D+04
     .583200000000D+06  .143423676491D-06  .162070101801D+01 -.173225998878D-06
     .938850633480D+00  .218968750000D+03 -.310833390594D+01 -.835713382245D-08
     .470733893670D-09  .100000000000D+01  .161700000000D+04  .000000000000D+00
     .340000000000D+01  .000000000000D+00 -.172294676304D-07  .113000000000D+03
     .576006000000D+06  .400000000000D+01
 4 11  1  8 18  0  0.0  .344961881638D-05  .100044417195D-10  .000000000000D+00
     .220000000000D+02  .469062500000D+02  .530736393015D-08  .202618432282D+01
     .236928462982D-05  .962790905032D-02  .812858343124D-05  .515356975174D+04
     .583200000000D+06 -.201165676117D-06  .163828108450D+01 -.596046447754D-07
     .937952916727D+00  .212750000000D+03  .699895890113D+00 -.834891919457D-08
     .393587823084D-09  .100000000000D+01  .161700000000D+04  .000000000000D+00
     .240000000000D+01  .000000000000D+00 -.605359673500D-08  .220000000000D+02
     .576006000000D+06  .400000000000D+01
 5 11  1  8 18  0  0.0 -.957329757512D-04 -.591171556152D-11  .000000000000D+00
     .850000000000D+02 -.100312500000D+02  .501699469225D-08  .747858428837D+00
    -.387430191040D-06  .221527135000D-02  .537000596523D-05  .515358800507D+04
     .583200000000D+06  .745058059692D-08  .268205528500D+01  .149011611938D-07
     .955701801045D+00  .270218750000D+03  .252757808469D+00 -.832963267692D-08
    -.348585948575D-09  .100000000000D+01  .161700000000D+04  .000000000000D+00
     .240000000000D+01  .000000000000D+00 -.977888703346D-08  .850000000000D+02
     .576006000000D+06  .400000000000D+01
 6 11  1  8 18  0  0.0  .374902971089D-03 -.545696821064D-11  .000000000000D+00
     .200000000000D+01 -.605312500000D+02  .490520432145D-08  .111499597951D+01
    -.327453017235D-05  .630077498499D-02  .988133251667D-05  .515366190910D+04
     .583200000000D+06  .124797224998D-06  .537380718601D+00 -.987201929092D-07
     .935634669945D+00  .176187500000D+03 -.883384713319D+00 -.819212694926D-08
     .239295681911D-10  .100000000000D+01  .161700000000D+04  .000000000000D+00
     .240000000000D+01  .000000000000D+00 -.465661287308D-08  .200000000000D+01
     .576006000000D+06  .400000000000D+01
 7 11  1  8 18  0  0.0  .150967389345D-05  .568434188608D-12  .000000000000D+00
     .390000000000D+02  .730625000000D+02  .424767693279D-08 -.267176177353D+01
     .374205410480D-05  .416350841988D-02  .559538602829D-05  .515367890358D+04
     .583200000000D+06 -.167638063431D-07 -.149798233554D+01  .558793544769D-08
     .973345520571D+00  .279968750000D+03 -.309929766578D+01 -.804319217410D-08
     .323942064916D-09  .100000000000D+01  .161700000000D+04  .000000000000D+00
     .240000000000D+01  .000000000000D+00 -.102445483208D-07  .390000000000D+02
     .576006000000D+06  .400000000000D+01
 8 11  1  8 18  0  0.0  .714464113116D-05  .000000000000D+00  .000000000000D+00
     .780000000000D+02  .648437500000D+02  .379694387224D-08  .307740044172D+01
     .327825546265D-05  .114431728143D-01  .554881989956D-05  .515362966919D+04
     .583200000000D+06 -.113621354103D-06 -.142533314785D+01 -.745058059692D-08
     .994897215085D+00  .291531250000D+03 -.309355058186D+01 -.772925052574D-08
     .302869758598D-09  .100000000000D+01  .161700000000D+04  .000000000000D+00
     .340000000000D+01  .000000000000D+00 -.419095158577D-08  .780000000000D+02
     .576006000000D+06  .400000000000D+01
10 11  1  8 18  0  0.0 -.626677647233D-04 -.102318153949D-11  .000000000000D+00
     .890000000000D+02 -.937500000000D+01  .517414409530D-08  .986642260948D+00
    -.255182385445D-06  .993866845965D-02  .578723847866D-05  .515355411720D+04
     .583200000000D+06 -.689178705215D-07  .270653264158D+01  .113621354103D-06
     .950693985226D+00  .262843750000D+03  .684508319422D+00 -.849963975840D-08
    -.450018745087D-09  .100000000000D+01  .161700000000D+04  .000000000000D+00
     .240000000000D+01  .000000000000D+00 -.279396772385D-08  .890000000000D+02
     .576006000000D+06  .400000000000D+01
11 11  1  8 18  0  0.0 -.117694493383D-03 -.295585778076D-11  .000000000000D+00
     .620000000000D+02  .451250000000D+02  .621240162861D-08 -.263502933569D+01
     .208988785744D-05  .115740608890D-01  .849738717079D-05  .515349221611D+04
     .583200000000D+06  .102445483208D-06  .139045364204D+01 -.126659870148D-06
     .887729005088D+00  .174906250000D+03  .902826667840D+00 -.865286042637D-08
     .480734310228D-09  .100000000000D+01  .161700000000D+04  .000000000000D+00
     .240000000000D+01  .000000000000D+00 -.116415321827D-07  .620000000000D+02
     .576006000000D+06  .400000000000D+01
12 11  1  8 18  0  0.0 -.375541858375D-04  .329691829393D-11  .000000000000D+00
     .400000000000D+01 -.586562500000D+02  .437089635109D-08 -.252193771187D+01
    -.298954546452D-05  .344658421818D-02  .420585274696D-05  .515352659607D+04
     .583200000000D+06 -.558793544769D-07 -.443122766505D+00  .540167093277D-07
     .973695857266D+00  .305093750000D+03 -.327637679973D+00 -.815641117584D-08
    -.939324840936D-10  .100000000000D+01  .161700000000D+04  .000000000000D+00
     .240000000000D+01  .000000000000D+00 -.116415321827D-07  .400000000000D+01
     .576006000000D+06  .400000000000D+01
13 11  1  8 18  0  0.0  .286546070129D-03 -.125055521494D-11  .000000000000D+00
     .460000000000D+02  .359687500000D+02  .362657963303D-08 -.153375018811D+00
     .175461173058D-05  .436488375999D-02  .105537474155D-04  .515366389465D+04
     .583200000000D+06 -.521540641785D-07 -.247528866731D+01 -.931322574615D-08
     .991287265768D+00  .192500000000D+03  .179134078156D+01 -.762174604774D-08
    -.209294432239D-09  .100000000000D+01  .161700000000D+04  .000000000000D+00
     .240000000000D+01  .000000000000D+00 -.107102096081D-07  .460000000000D+02
     .576006000000D+06  .400000000000D+01
15 11  1  8 18  0  0.0 -.163300428540D-03  .397903932026D-11  .000000000000D+00
     .104000000000D+03  .728125000000D+01  .450018745087D-08 -.549376576631D+00
     .370666384697D-06  .327748782001D-02  .103004276752D-04  .515388575554D+04
     .583200000000D+06  .689178705215D-07 -.256982946438D+01 -.819563865662D-07
     .951766315882D+00  .177406250000D+03 -.138833728673D+00 -.803497754621D-08
    -.321799118511D-09  .100000000000D+01  .161700000000D+04  .000000000000D+00
     .340000000000D+01  .000000000000D+00 -.977888703346D-08  .104000000000D+03
     .576006000000D+06  .400000000000D+01
16 11  1  8 18  0  0.0 -.141073018312D-03 -.306954461848D-11  .000000000000D+00
     .530000000000D+02 -.665312500000D+02  .429375028051D-08  .134362993384D+01
    -.336207449436D-05  .601334322710D-02  .419095158577D-05  .515372875786D+04
     .583200000000D+06  .465661287308D-07 -.425431262223D+00  .521540641785D-07
     .974795854629D+00  .304031250000D+03 -.168934865661D+00 -.813212444991D-08
    -.208222959036D-09  .100000000000D+01  .161700000000D+04  .000000000000D+00
     .240000000000D+01  .000000000000D+00 -.977888703346D-08  .530000000000D+02
     .576006000000D+06  .400000000000D+01
17 11  1  8 18  0  0.0  .181295908988D-03  .682121026330D-12  .000000000000D+00
     .270000000000D+02 -.472187500000D+02  .438482550273D-08  .291946589639D+00
    -.247545540333D-05  .593465031125D-02  .111274421215D-04  .515370699120D+04
     .583200000000D+06  .931322574615D-08  .617002445954D+00  .104308128357D-06
     .961042328322D+00  .166406250000D+03 -.248403649610D+01 -.796318884164D-08
     .210723063176D-10  .100000000000D+01  .161700000000D+04  .000000000000D+00
     .240000000000D+01  .000000000000D+00 -.102445483208D-07  .270000000000D+02
     .576006000000D+06  .400000000000D+01
18 11  1  8 18  0  0.0  .114837661386D-03  .216004991671D-11  .000000000000D+00
     .760000000000D+02 -.118125000000D+02  .549594321381D-08  .161365670319D+01
    -.676140189171D-06  .118342457572D-01  .554323196411D-05  .515375178146D+04
     .583200000000D+06 -.292435288429D-06  .270307860276D+01  .335276126862D-07
     .934609432086D+00  .262500000000D+03 -.227789280356D+01 -.865500337277D-08
    -.328585115460D-09  .100000000000D+01  .161700000000D+04  .000000000000D+00
     .240000000000D+01  .000000000000D+00 -.107102096081D-07  .760000000000D+02
     .576006000000D+06  .400000000000D+01
19 11  1  8 18  0  0.0 -.996370799839D-04 -.352429196937D-11  .000000000000D+00
     .120000000000D+02 -.381250000000D+02  .442839874630D-08 -.504726365319D+00
    -.206008553505D-05  .686621805653D-02  .108368694782D-04  .515361227608D+04
     .583200000000D+06  .135973095894D-06  .671402652238D+00 -.558793544769D-07
     .958556214617D+00  .168062500000D+03 -.145278473832D-01 -.796497463031D-08
     .102861427448D-09  .100000000000D+01  .161700000000D+04  .000000000000D+00
     .240000000000D+01  .000000000000D+00 -.149011611938D-07  .120000000000D+02
     .576006000000D+06  .400000000000D+01
